{"type":"FeatureCollection","features":[{"type":"Feature","properties":{},"geometry":{"coordinates":[[[18.629279247049027,-33.872951069652714],[18.63874422279528,-33.8957958323153],[19.102421348863885,-33.750603477050106],[19.08709998826717,-33.7197613175358],[18.99214189230426,-33.74198166477775],[18.8694278805948,-33.77628389398901],[18.629279247049027,-33.872951069652714]]],"type":"Polygon"}},{"type":"Feature","properties":{},"geometry":{"coordinates":[[[18.52184008795348,-33.80075138146064],[18.57552832864181,-33.80408579658085],[18.59057977797866,-33.63855255954085],[18.657871289783657,-33.53451233301221],[18.714150626585905,-33.48189358551448],[18.78962401912787,-33.44988068095664],[18.874657526933618,-33.417899165117916],[18.928279646387637,-33.430309859130666],[18.9475250154388,-33.41079414651886],[18.90080281900663,-33.36503661142726],[18.712806541580278,-33.38472686049693],[18.62360982749763,-33.454474550389016],[18.559033482053138,-33.60426726927669],[18.50953150545857,-33.76762857398761],[18.52184008795348,-33.80075138146064]]],"type":"Polygon"}},{"type":"Feature","properties":{},"geometry":{"coordinates":[[[19.709129427858784,-33.37969846915609],[19.825193494182628,-33.446844137751285],[21.433109781266808,-33.1744824824478],[21.826345163530135,-33.00985786930406],[22.165537589553168,-32.747235043470795],[22.384032409166878,-32.521593151709816],[22.4009642002419,-32.40117181264079],[22.103047616301666,-32.645748074071705],[21.875274322666,-32.79605976167083],[21.661068291765304,-32.95739851886954],[21.531541145683548,-33.039831540338696],[21.23193658491985,-33.099599725744795],[20.968356385423363,-33.107016236198966],[20.58437102684627,-33.155648581965394],[19.999410720625036,-33.286398645792424],[19.69578867414549,-33.33862217971313],[19.709129427858784,-33.37969846915609]]],"type":"Polygon"}}]}