{"type":"FeatureCollection","features":[{"type":"Feature","properties":{},"geometry":{"coordinates":[[[16.401147117051465,-28.6255294712482],[16.50882266524988,-28.940343107266393],[16.911395059277368,-29.58728997482544],[17.27160074131453,-30.522586269351358],[17.716550560436644,-31.249920146619324],[18.114772672678413,-31.951936553152507],[18.21493778293666,-32.53758191740967],[17.875249200139308,-32.64765689954169],[17.757664615197626,-32.81251599212282],[17.837094893200373,-33.03915395581925],[18.013145517182437,-33.25048116135241],[18.122545978386512,-33.405589902705465],[18.343723569664093,-33.71042497963941],[18.24541594726125,-33.81720097683519],[18.247756816590027,-34.162679896380496],[18.37710699637097,-34.365513416199065],[18.753986958320212,-34.3635811153603],[18.861666947448583,-34.40994403399697],[18.981054836525573,-34.373267769412685],[19.072345187047745,-34.388697550089795],[19.182366045504864,-34.46786156339521],[19.292386903961983,-34.51995300277607],[19.238546909397854,-34.63752118079767],[19.423475586377975,-34.67218164238205],[19.601379482063805,-34.802989381651564],[19.823735305223153,-34.78760367041613],[19.99096016369262,-34.85891507705372],[20.105733092151752,-34.7935460031689],[20.215829689571677,-34.73003646387976],[20.323581942458702,-34.63757359543612],[20.459440227546963,-34.55273848883241],[20.590581877394072,-34.47936374003161],[20.770947827241685,-34.48324082543525],[20.886958452063368,-34.47998137242579],[20.94548291721091,-34.39400373070046],[21.079131328533123,-34.41928342819513],[21.333058989574624,-34.448403150581356],[21.477289842147172,-34.43587432924902],[21.78420130644463,-34.41084245366388],[21.95009854374527,-34.37531285345661],[22.008897718257998,-34.24581218537884],[22.134323492692886,-34.23284378098258],[22.20039159292577,-34.1921874778754],[22.144291294591113,-34.13826907285497],[22.225490457650835,-34.07768299833766],[22.425903638542934,-34.086828435675145],[22.577229499259346,-34.02205012276718],[22.767654503206217,-34.06266256176156],[23.031042413078637,-34.12599771017843],[23.387852774011662,-34.16113647633753],[23.464207017061852,-34.04850354594054],[23.59161362318349,-34.020328445105505],[23.92302165684896,-34.04150128888847],[24.313916506809818,-34.12598374993758],[24.47547787814949,-34.23850644044758],[24.85246354614509,-34.273783245542575],[24.911961149827846,-34.14022108725674],[25.073417668330023,-34.01350450497407],[25.574746237545384,-34.119122423852964],[25.7871765477351,-34.020575552922665],[25.702200160713915,-33.82312966387355],[26.05060148301638,-33.759610684902476],[26.424495303828905,-33.83729544107325],[26.857872508134903,-33.71015847305024],[27.500153405912243,-33.318559252287045],[28.40094789667208,-32.75572279227434],[29.089209232230132,-32.14616846108149],[29.811479151367678,-31.518075697164463],[30.329119118420067,-31.007577104842767],[30.932808760116444,-30.048416819855063],[31.252348214684105,-29.634945221522642],[31.757309188328463,-29.04358015485964],[32.06504013839384,-28.9400992988273],[32.48322691984052,-28.53194315571303],[32.69660006029355,-27.88877721649071],[32.878053706538026,-27.062898487237803],[32.90876617251982,-26.77003111766983],[32.22427132890061,-26.4424157968475],[32.147174987335944,-25.43913517554371],[32.14715338508577,-24.519727441329564],[31.892038783372726,-23.806924256521626],[31.67677308961308,-23.27339872949075],[31.716648246427013,-22.825952656063578],[31.22811925522177,-22.278048583563987],[29.92632819762963,-22.041737192270034],[29.092614092221226,-22.144236430254168],[28.45460146422485,-22.435483128565252],[27.98676284543339,-22.718266654691504],[27.578470083868325,-23.125670204251307],[27.040017057314117,-23.44611416122926],[26.750797910651613,-24.131111521796853],[26.316914703782373,-24.510982948385646],[25.7128897510664,-24.6889229195464],[25.551251746077867,-25.428684416182847],[25.27054577230902,-25.643601073191235],[24.692087796342378,-25.681948363492495],[24.268098752368672,-25.59756855315233],[23.723747190955578,-25.313400445490032],[23.281450006947438,-25.151814200276462],[22.83912418187697,-25.35952835775784],[22.583950774174582,-26.026401729795197],[21.818387815019065,-26.545022669558783],[21.580212712218554,-26.773103211433167],[21.129368473518554,-26.77311592214906],[20.74657259906553,-26.719946189261016],[20.738068827697077,-26.567876112240285],[20.95073657353288,-26.179190369984795],[20.87267797800709,-25.781459861703837],[20.59418337100459,-25.052828670829825],[20.134053087481135,-24.805640690209543],[19.973289746506055,-24.656578299167094],[19.925067280691763,-24.809869940033224],[19.91914136061007,-28.373888213626508],[19.60388966463853,-28.436697604768],[19.3777354854615,-28.645758838120678],[19.21712606990738,-28.744942367448523],[19.20536112645351,-28.88060612451433],[19.074454121406603,-28.89105034093007],[19.044649586258203,-28.8440937861512],[18.622130393096626,-28.802376784095564],[18.211478189152587,-28.79722423814256],[17.746074842830012,-28.682978842008716],[17.6807100952893,-28.68126745388286],[17.470233123640583,-28.62716754772576],[17.448740603026664,-28.580397881799747],[17.44059747067419,-28.41205549874023],[17.41217206384752,-28.237951391471057],[17.31452678407308,-28.17413403926296],[17.21885693932623,-28.174092356580104],[17.244741600094358,-28.070614069690606],[17.108263517081497,-28.003172038834684],[16.940144449460945,-28.029421864025785],[16.84864764878128,-28.08000452875161],[16.763464097468727,-28.202079427336365],[16.70383688988963,-28.30148564593828],[16.712355395795214,-28.417672864754444],[16.599457468069858,-28.48883328022408],[16.488626823564744,-28.530038003657822],[16.401147117051465,-28.6255294712482]]],"type":"Polygon"}}]}